[{"OBJECT_NAME":"STARLINK-34649","OBJECT_ID":"2025-150J","EPOCH":"2026-03-09T13:11:06.449280","MEAN_MOTION":14.98332147,"ECCENTRICITY":0.00033215,"INCLINATION":70.0024,"RA_OF_ASC_NODE":134.9019,"ARG_OF_PERICENTER":258.4155,"MEAN_ANOMALY":101.6631,"EPHEMERIS_TYPE":0,"CLASSIFICATION_TYPE":"U","NORAD_CAT_ID":64798,"ELEMENT_SET_NO":999,"REV_AT_EPOCH":3738,"BSTAR":8.417142e-5,"MEAN_MOTION_DOT":9.12e-6,"MEAN_MOTION_DDOT":0},{"OBJECT_NAME":"DELTA 1 DEB","OBJECT_ID":"1977-065DC","EPOCH":"2026-03-08T18:53:52.858176","MEAN_MOTION":13.67610044,"ECCENTRICITY":0.06541303,"INCLINATION":29.1038,"RA_OF_ASC_NODE":273.1071,"ARG_OF_PERICENTER":41.1554,"MEAN_ANOMALY":323.6515,"EPHEMERIS_TYPE":0,"CLASSIFICATION_TYPE":"U","NORAD_CAT_ID":10306,"ELEMENT_SET_NO":999,"REV_AT_EPOCH":37728,"BSTAR":0.00097809201,"MEAN_MOTION_DOT":3.989e-5,"MEAN_MOTION_DDOT":0}]
